[{"OBJECT_NAME":"ETIHAD-SAT","OBJECT_ID":"2025-052S","EPOCH":"2026-03-09T16:03:28.707264","MEAN_MOTION":15.21246201,"ECCENTRICITY":0.00067443,"INCLINATION":97.4075,"RA_OF_ASC_NODE":322.8388,"ARG_OF_PERICENTER":120.6163,"MEAN_ANOMALY":239.5739,"EPHEMERIS_TYPE":0,"CLASSIFICATION_TYPE":"U","NORAD_CAT_ID":63226,"ELEMENT_SET_NO":999,"REV_AT_EPOCH":5470,"BSTAR":0.00038811178,"MEAN_MOTION_DOT":8.608e-5,"MEAN_MOTION_DDOT":0},{"OBJECT_NAME":"OBJECT B","OBJECT_ID":"2025-108B","EPOCH":"2026-03-09T22:57:20.569248","MEAN_MOTION":15.18732481,"ECCENTRICITY":0.00118477,"INCLINATION":97.4788,"RA_OF_ASC_NODE":145.8779,"ARG_OF_PERICENTER":0.6755,"MEAN_ANOMALY":359.4493,"EPHEMERIS_TYPE":0,"CLASSIFICATION_TYPE":"U","NORAD_CAT_ID":64088,"ELEMENT_SET_NO":999,"REV_AT_EPOCH":4430,"BSTAR":0.00058992219,"MEAN_MOTION_DOT":0.00012214,"MEAN_MOTION_DDOT":0}]
